[{"OBJECT_NAME":"STARLINK-2459","OBJECT_ID":"2021-027AD","EPOCH":"2026-03-10T00:00:02.999808","MEAN_MOTION":15.09710709,"ECCENTRICITY":8.157e-5,"INCLINATION":53.0617,"RA_OF_ASC_NODE":150.2046,"ARG_OF_PERICENTER":73.0767,"MEAN_ANOMALY":312.5098,"EPHEMERIS_TYPE":0,"CLASSIFICATION_TYPE":"U","NORAD_CAT_ID":48119,"ELEMENT_SET_NO":999,"REV_AT_EPOCH":559,"BSTAR":0.0049045756,"MEAN_MOTION_DOT":0.00080573,"MEAN_MOTION_DDOT":0},{"OBJECT_NAME":"OBJECT E","OBJECT_ID":"2025-013E","EPOCH":"2026-03-09T23:59:52.369152","MEAN_MOTION":15.10347623,"ECCENTRICITY":0.00085591,"INCLINATION":97.6477,"RA_OF_ASC_NODE":238.3736,"ARG_OF_PERICENTER":6.9171,"MEAN_ANOMALY":353.2174,"EPHEMERIS_TYPE":0,"CLASSIFICATION_TYPE":"U","NORAD_CAT_ID":62733,"ELEMENT_SET_NO":999,"REV_AT_EPOCH":6224,"BSTAR":0.00032920786,"MEAN_MOTION_DOT":5.34e-5,"MEAN_MOTION_DDOT":0}]
